targetname,datetime_jd,datetime_str,e,q,incl,Omega,w,Tp_jd,n,M,nu,a,Q,P
Uranus Barycenter (7),2440587.5,A.D. 1970-Jan-01 00:00:00.0000,0.05115119589809419,18.2917711301196,0.7734206488867369,74.03717411229414,98.40835154401147,2439532.443156361,0.01164462315940878,12.28573935592953,13.61574345304732,19.27785654684251,20.26394196356541,30915.55605293438
Uranus Barycenter (7),2440588.5,A.D. 1970-Jan-02 00:00:00.0000,0.05114950102073102,18.29178082651377,0.7734209014936497,74.03712786488066,98.41082882690817,2439532.630217326,0.0116446451004943,12.29522889156872,13.62619409593533,19.27783233100605,20.26388383549833,30915.49780119263
